OBJECT_NAME,OBJECT_ID,EPOCH,MEAN_MOTION,ECCENTRICITY,INCLINATION,RA_OF_ASC_NODE,ARG_OF_PERICENTER,MEAN_ANOMALY,EPHEMERIS_TYPE,CLASSIFICATION_TYPE,NORAD_CAT_ID,ELEMENT_SET_NO,REV_AT_EPOCH,BSTAR,MEAN_MOTION_DOT,MEAN_MOTION_DDOT
STARLINK-31228,2024-017S,2026-07-16T14:42:44.081280,15.30191821,.0000964,53.1620,325.5778,88.0719,272.0393,0,U,58842,999,13979,.47241E-4,.104E-4,0
STARLINK-31280,2024-017T,2026-07-16T14:24:11.424672,15.34390089,.0001454,53.1605,325.4977,86.8952,273.2217,0,U,58843,999,13979,.71151E-4,.2028E-4,0
STARLINK-31269,2024-017U,2026-07-17T00:00:02.000160,15.34376635,.0001041,53.1586,53.5697,83.8658,165.9344,0,U,58844,999,567,.11466E-2,.38532E-3,0
STARLINK-31264,2024-017V,2026-07-16T23:48:22.326912,15.30179896,.0001431,53.1604,53.3079,72.3180,287.7976,0,U,58845,999,13857,.69528E-4,.1699E-4,0
STARLINK-31273,2024-017W,2026-07-16T17:22:40.708992,15.34410275,.0001103,53.1608,324.8514,55.3021,304.8085,0,U,58846,999,13981,.17172E-3,.5432E-4,0
STARLINK-31262,2024-017X,2026-07-16T23:58:59.682432,15.30193827,.0001469,53.1615,53.3471,91.1371,268.9798,0,U,58847,999,13857,.40624E-4,.844E-5,0
AAC-HSI-SAT3,2023-174DH,2026-07-17T04:13:25.283712,15.15909252,.0008837,97.3392,256.5774,261.7769,98.2462,0,U,58848,999,14844,.6237E-4,.1131E-4,0
2024-018A,2024-018A,2026-07-17T04:16:47.267904,14.39601498,.0434512,58.6861,124.7041,140.5499,222.8035,0,U,58849,999,12949,.89596E-4,.615E-5,0
2024-018B,2024-018B,2026-07-17T05:15:37.876032,14.43978277,.0417128,58.6930,111.9605,143.7490,219.2589,0,U,58850,999,12973,.14125E-3,.1173E-4,0
2024-018C,2024-018C,2026-07-17T04:15:21.611808,14.41152400,.0427046,58.6829,117.9813,143.0825,220.0423,0,U,58851,999,12961,.93637E-4,.66E-5,0
STARLINK-31238,2024-019A,2026-07-16T10:14:53.320128,15.27572190,.0001278,43.0037,241.6632,271.9884,88.0822,0,U,58853,999,13877,.11468E-4,.53E-6,0
STARLINK-31158,2024-019B,2026-07-17T03:39:51.251328,15.27577539,.0001154,43.0010,237.6453,270.1774,89.8945,0,U,58854,999,13888,.1425E-4,.13E-5,0
STARLINK-31237,2024-019C,2026-07-17T03:23:12.374880,15.27577475,.0001187,43.0004,237.5825,278.4269,81.6448,0,U,58855,999,13888,.12954E-4,.94E-6,0
STARLINK-31244,2024-019D,2026-07-17T03:47:15.224640,15.27579128,.0000824,42.9987,237.6868,248.4514,111.6250,0,U,58856,999,13888,.20981E-4,.316E-5,0
STARLINK-31226,2024-019F,2026-07-17T02:35:17.666304,15.27581223,.0001353,43.0010,238.1762,246.2269,113.8441,0,U,58858,999,13887,.48997E-4,.1086E-4,0
STARLINK-31197,2024-019G,2026-07-17T04:26:06.829728,15.27577765,.0001685,43.0015,237.8955,268.6480,91.4178,0,U,58859,999,13888,.12084E-4,.7E-6,0
STARLINK-31213,2024-019H,2026-07-17T03:49:06.507840,15.27576344,.0001238,43.0047,237.6997,293.4093,66.6628,0,U,58860,999,13888,.10179E-4,.18E-6,0
STARLINK-31199,2024-019J,2026-07-17T03:43:33.404736,15.27575259,.00012,43.0019,237.6695,272.8135,87.2580,0,U,58861,999,13888,.3182E-4,.614E-5,0
STARLINK-31200,2024-019K,2026-07-16T10:29:41.101728,15.27574745,.0001369,43.0021,241.7409,292.3763,67.6944,0,U,58862,999,13877,.2904E-4,.537E-5,0
STARLINK-31149,2024-019L,2026-07-17T04:40:42.556800,15.27575766,.0001068,42.9997,237.1115,268.2973,91.7757,0,U,58863,999,13889,-.22246E-5,-.323E-5,0
STARLINK-31242,2024-019M,2026-07-17T03:54:39.447648,15.27577056,.0001453,43.0040,237.7301,269.8363,90.2322,0,U,58864,999,13888,.12848E-4,.91E-6,0
STARLINK-31223,2024-019N,2026-07-17T03:56:30.547680,15.27579091,.0001384,43.0028,237.7458,277.7090,82.3604,0,U,58865,999,13886,.18473E-4,.246E-5,0
STARLINK-31219,2024-019P,2026-07-17T03:21:21.239424,15.27576833,.0001051,43.0000,237.5567,271.5001,88.5730,0,U,58866,999,13886,-.1801E-4,-.757E-5,0
STARLINK-31198,2024-019Q,2026-07-17T03:34:18.479136,15.27568460,.0001261,43.0005,237.6043,276.4629,83.6079,0,U,58867,999,13886,.30979E-4,.59E-5,0
STARLINK-31196,2024-019R,2026-07-17T04:31:39.894816,15.27577409,.0001452,43.0002,237.9188,275.8015,84.2671,0,U,58868,999,13886,.11135E-4,.44E-6,0
STARLINK-31203,2024-019S,2026-07-17T02:04:33.384000,15.27571628,.0001499,43.0047,234.5335,282.9447,77.1237,0,U,58869,999,13891,.59792E-4,.1383E-4,0
STARLINK-31201,2024-019T,2026-07-16T14:37:00.065856,15.27576095,.0001465,43.0005,240.4531,274.3344,85.7340,0,U,58870,999,13878,.47084E-4,.1034E-4,0
STARLINK-31214,2024-019U,2026-07-17T03:28:45.147072,15.27575582,.000128,43.0003,237.5779,281.2647,78.8061,0,U,58871,999,13886,.25472E-5,-.192E-5,0
STARLINK-31215,2024-019V,2026-07-17T03:32:27.384288,15.27579544,.000168,43.0019,237.6140,293.2376,66.8299,0,U,58872,999,13886,.28177E-4,.513E-5,0
STARLINK-31177,2024-019W,2026-07-16T11:43:29.658144,15.27604690,.0001232,42.9996,241.2604,250.3002,109.7716,0,U,58873,999,13878,-.20495E-3,-.5902E-4,0
STARLINK-30945,2024-019X,2026-07-17T02:39:00.059904,15.27578976,.0001616,43.0020,238.1836,273.5890,86.4777,0,U,58874,999,13887,.41098E-4,.869E-5,0
STARLINK-31212,2024-019Y,2026-07-16T03:43:27.356736,15.27573694,.00013867,43.0011,243.0660,272.1109,87.9583,0,U,58875,999,13871,.21393231E-4,.327E-5,0
STARLINK-31306,2024-020A,2026-07-17T01:34:11.822304,15.34397127,.0001467,53.1610,79.7500,84.5378,275.5792,0,U,58876,999,13908,.26859E-4,.531E-5,0
STARLINK-31326,2024-020B,2026-07-17T02:42:58.466016,15.31707667,.0001689,53.1601,80.7483,76.9581,283.1609,0,U,58877,999,13789,.93861E-5,-.74E-6,0
STARLINK-31300,2024-020C,2026-07-17T01:06:55.693152,15.34392986,.0001535,53.1600,79.6303,102.7320,257.3854,0,U,58878,999,13790,.26059E-4,.504E-5,0
STARLINK-31296,2024-020D,2026-07-16T23:47:14.538336,15.34387299,.0001331,53.1603,55.8360,99.2773,260.8380,0,U,58879,999,13823,.20182E-4,.305E-5,0
STARLINK-31328,2024-020E,2026-07-17T00:15:03.991104,15.30188080,.000152,53.1607,66.5257,94.1367,265.9808,0,U,58880,999,13808,.29664E-4,.519E-5,0
STARLINK-31260,2024-020F,2026-07-16T22:29:37.843584,15.34403784,.0001402,53.1599,80.3688,87.5943,272.5220,0,U,58881,999,13788,-.68515E-4,-.2691E-4,0
STARLINK-31323,2024-020G,2026-07-17T01:09:58.082688,15.34381716,.0001207,53.1597,79.6457,76.6351,283.4786,0,U,58882,999,13790,-.34702E-4,-.1548E-4,0
STARLINK-31209,2024-020H,2026-07-17T00:39:39.873312,15.34407660,.0001068,53.1589,79.5165,103.8322,256.2799,0,U,58883,999,13790,.20663E-3,.6613E-4,0
STARLINK-31315,2024-020J,2026-07-17T04:00:01.998720,15.33554085,.0001306,53.1598,55.0103,82.1608,108.0483,0,U,58884,999,585,.21358E-3,.6659E-4,0
STARLINK-31318,2024-020K,2026-07-16T23:28:20.165088,15.31701231,.0001538,53.1595,81.3203,91.0031,269.1147,0,U,58885,999,13787,.10647E-3,.294E-4,0
STARLINK-31320,2024-020L,2026-07-17T02:04:21.706176,15.34393124,.0001206,53.1611,79.1673,88.7945,271.3196,0,U,58886,999,13791,.12973E-4,.62E-6,0
STARLINK-31321,2024-020M,2026-07-17T01:31:09.852672,15.34392380,.0001433,53.1593,79.7297,90.5622,269.5544,0,U,58887,999,13906,-.28723E-4,-.1346E-4,0
STARLINK-31007,2024-020P,2026-07-16T21:56:18.799872,15.34389837,.0001377,53.1610,80.2252,70.6516,289.4635,0,U,58889,999,13788,-.88535E-5,-.675E-5,0
STARLINK-31230,2024-020Q,2026-07-16T21:34:17.932224,15.34392666,.000146,53.1609,78.0294,95.7619,264.3550,0,U,58890,999,13791,.27988E-4,.569E-5,0
STARLINK-31245,2024-020R,2026-07-16T20:34:13.598976,15.34403653,.0001166,53.1608,38.9042,90.7328,269.3808,0,U,58891,999,13961,.42315E-4,.1054E-4,0
STARLINK-31255,2024-020T,2026-07-16T21:35:05.795232,15.34392954,.0001364,53.1613,80.1340,96.3559,263.7599,0,U,58893,999,13788,-.47264E-5,-.536E-5,0
STARLINK-31243,2024-020U,2026-07-16T21:47:39.069312,15.31717266,.0001456,53.1621,81.6063,95.9308,264.1859,0,U,58894,999,13786,-.2758E-4,-.1221E-4,0
STARLINK-31218,2024-020V,2026-07-16T21:34:12.846720,15.31710209,.0001153,53.1604,81.5456,106.9904,253.1224,0,U,58895,999,13786,.47384E-4,.1106E-4,0
STARLINK-31190,2024-020X,2026-07-16T21:40:55.591680,15.31722670,.0001355,53.1614,81.5730,92.0797,268.0360,0,U,58897,999,13786,.25176E-4,.417E-5,0
LEMUR-2-NIMBUS2000,2024-022A,2026-07-16T13:36:37.588608,15.41153193,.0008618,97.4075,47.9572,24.2441,335.9209,0,U,58899,999,13679,.31938E-3,.13172E-3,0
LEMUR-2-VALHALLA,2024-022B,2026-07-16T19:58:34.659840,15.40519232,.0009043,97.4076,48.1944,18.4869,341.6704,0,U,58900,999,13683,.23769E-3,.9575E-4,0
LEMUR-2-CAEL,2024-022E,2026-07-17T00:16:06.845376,15.41893373,.0006912,97.4055,49.3652,3.1260,357.0029,0,U,58903,999,13693,.24002E-3,.10116E-3,0
GEESAT-2 01,2024-023A,2026-07-17T04:32:14.313984,14.83337232,.0004847,49.9936,215.1238,149.1578,210.9645,0,U,58905,999,13336,.81314E-4,.447E-5,0
GEESAT-2 02,2024-023B,2026-07-17T04:10:43.923936,14.83324044,.0014319,49.9975,215.3575,114.6200,245.6232,0,U,58906,999,13336,.80324E-4,.437E-5,0
GEESAT-2 03,2024-023C,2026-07-17T03:33:56.860128,14.97188473,.0005708,50.0005,182.4627,154.7743,205.3480,0,U,58907,999,13381,.50101E-4,.329E-5,0
GEESAT-2 04,2024-023D,2026-07-17T04:29:36.833568,14.97285465,.0005865,49.9919,181.2337,158.3664,201.7528,0,U,58908,999,13382,.50831E-4,.339E-5,0
GEESAT-2 05,2024-023E,2026-07-17T03:16:33.703680,14.83309031,.0010974,50.0036,215.6469,180.5069,179.5860,0,U,58909,999,13336,.80578E-4,.439E-5,0
GEESAT-2 06,2024-023F,2026-07-17T03:17:34.778976,15.04397701,.0005385,49.9875,156.3208,174.3244,185.7764,0,U,58910,999,13415,.14542E-3,.1782E-4,0
GEESAT-2 07,2024-023G,2026-07-17T03:59:34.785312,14.83339075,.0010119,50.0046,215.9153,177.1055,182.9943,0,U,58911,999,13336,.8032E-4,.438E-5,0
GEESAT-2 08,2024-023H,2026-07-17T03:37:53.781024,14.83340093,.000345,49.9884,214.4214,102.0409,258.0915,0,U,58912,999,13336,.92691E-4,.542E-5,0
GEESAT-2 09,2024-023J,2026-07-17T03:06:06.006816,14.83356805,.00212,50.0022,215.5035,122.4901,237.8090,0,U,58913,999,13336,.79836E-4,.432E-5,0
GEESAT-2 10,2024-023K,2026-07-17T04:21:04.670784,14.83326322,.0009288,49.9932,215.0557,112.9834,247.2085,0,U,58914,999,13336,.82096E-4,.452E-5,0
GEESAT-2 11,2024-023L,2026-07-17T03:26:52.371744,14.83345668,.0019518,49.9988,215.2398,229.1714,130.7532,0,U,58915,999,13336,.91523E-4,.53E-5,0
XINGSHIDAI 20,2024-024B,2026-07-17T03:57:11.966112,15.20641929,.0017446,97.3048,263.6034,50.9780,309.3006,0,U,58918,999,13590,.15679E-3,.3386E-4,0
